CCSDS_OMM_VERS = 2.0
CREATION_DATE  = 
ORIGINATOR     = 

OBJECT_NAME    = RSP-03
OBJECT_ID      = 1998-067XL
CENTER_NAME    = EARTH
REF_FRAME      = TEME
TIME_SYSTEM    = UTC
MEAN_ELEMENT_THEORY = SGP/SGP4

EPOCH          = 2026-02-15T07:10:46.486560
MEAN_MOTION    = 16.24990982
ECCENTRICITY   = .00092942
INCLINATION    = 51.6093
RA_OF_ASC_NODE = 160.1847
ARG_OF_PERICENTER = 332.6615
MEAN_ANOMALY   = 27.3915

EPHEMERIS_TYPE = 0
CLASSIFICATION_TYPE = U
NORAD_CAT_ID   = 65732
ELEMENT_SET_NO = 999
REV_AT_EPOCH   = 2339
BSTAR          = .13317936E-2
MEAN_MOTION_DOT = .4025854E-1
MEAN_MOTION_DDOT = .12023037E-4

CCSDS_OMM_VERS = 2.0
CREATION_DATE  = 
ORIGINATOR     = 

OBJECT_NAME    = YOTSUBA-KULOVER
OBJECT_ID      = 1998-067XN
CENTER_NAME    = EARTH
REF_FRAME      = TEME
TIME_SYSTEM    = UTC
MEAN_ELEMENT_THEORY = SGP/SGP4

EPOCH          = 2026-02-14T15:01:36.136416
MEAN_MOTION    = 15.72504057
ECCENTRICITY   = .00044758
INCLINATION    = 51.6248
RA_OF_ASC_NODE = 176.1336
ARG_OF_PERICENTER = 301.6790
MEAN_ANOMALY   = 58.3771

EPHEMERIS_TYPE = 0
CLASSIFICATION_TYPE = U
NORAD_CAT_ID   = 65941
ELEMENT_SET_NO = 999
REV_AT_EPOCH   = 1986
BSTAR          = .82769388E-3
MEAN_MOTION_DOT = .113932E-2
MEAN_MOTION_DDOT = 0

CCSDS_OMM_VERS = 2.0
CREATION_DATE  = 
ORIGINATOR     = 

OBJECT_NAME    = BOTAN
OBJECT_ID      = 1998-067XP
CENTER_NAME    = EARTH
REF_FRAME      = TEME
TIME_SYSTEM    = UTC
MEAN_ELEMENT_THEORY = SGP/SGP4

EPOCH          = 2026-02-15T06:18:41.379552
MEAN_MOTION    = 15.89634661
ECCENTRICITY   = .00089286
INCLINATION    = 51.6165
RA_OF_ASC_NODE = 168.3215
ARG_OF_PERICENTER = 328.9748
MEAN_ANOMALY   = 31.0729

EPHEMERIS_TYPE = 0
CLASSIFICATION_TYPE = U
NORAD_CAT_ID   = 65942
ELEMENT_SET_NO = 999
REV_AT_EPOCH   = 2002
BSTAR          = .17518901E-2
MEAN_MOTION_DOT = .526538E-2
MEAN_MOTION_DDOT = .11616566E-3

CCSDS_OMM_VERS = 2.0
CREATION_DATE  = 
ORIGINATOR     = 

OBJECT_NAME    = E-KAGAKU-1
OBJECT_ID      = 1998-067XQ
CENTER_NAME    = EARTH
REF_FRAME      = TEME
TIME_SYSTEM    = UTC
MEAN_ELEMENT_THEORY = SGP/SGP4

EPOCH          = 2026-02-14T13:31:52.335552
MEAN_MOTION    = 15.72355274
ECCENTRICITY   = .00043794
INCLINATION    = 51.6271
RA_OF_ASC_NODE = 176.4800
ARG_OF_PERICENTER = 316.3340
MEAN_ANOMALY   = 43.7311

EPHEMERIS_TYPE = 0
CLASSIFICATION_TYPE = U
NORAD_CAT_ID   = 65943
ELEMENT_SET_NO = 999
REV_AT_EPOCH   = 1985
BSTAR          = .81130855E-3
MEAN_MOTION_DOT = .110915E-2
MEAN_MOTION_DDOT = 0

CCSDS_OMM_VERS = 2.0
CREATION_DATE  = 
ORIGINATOR     = 

OBJECT_NAME    = HRC MONOBLOCK CAMERA
OBJECT_ID      = 1998-067XR
CENTER_NAME    = EARTH
REF_FRAME      = TEME
TIME_SYSTEM    = UTC
MEAN_ELEMENT_THEORY = SGP/SGP4

EPOCH          = 2026-02-14T14:07:05.479968
MEAN_MOTION    = 15.59775390
ECCENTRICITY   = .00017624
INCLINATION    = 51.6272
RA_OF_ASC_NODE = 181.8982
ARG_OF_PERICENTER = 9.3579
MEAN_ANOMALY   = 350.7447

EPHEMERIS_TYPE = 0
CLASSIFICATION_TYPE = U
NORAD_CAT_ID   = 66052
ELEMENT_SET_NO = 999
REV_AT_EPOCH   = 1878
BSTAR          = .50768025E-3
MEAN_MOTION_DOT = .41188E-3
MEAN_MOTION_DDOT = 0

CCSDS_OMM_VERS = 2.0
CREATION_DATE  = 
ORIGINATOR     = 

OBJECT_NAME    = HTV-X1
OBJECT_ID      = 2025-241A
CENTER_NAME    = EARTH
REF_FRAME      = TEME
TIME_SYSTEM    = UTC
MEAN_ELEMENT_THEORY = SGP/SGP4

EPOCH          = 2026-02-15T04:22:41.614176
MEAN_MOTION    = 15.48615434
ECCENTRICITY   = .00110479
INCLINATION    = 51.6317
RA_OF_ASC_NODE = 183.6135
ARG_OF_PERICENTER = 100.3471
MEAN_ANOMALY   = 259.8763

EPHEMERIS_TYPE = 0
CLASSIFICATION_TYPE = U
NORAD_CAT_ID   = 66174
ELEMENT_SET_NO = 999
REV_AT_EPOCH   = 51
BSTAR          = .21745046E-3
MEAN_MOTION_DOT = .11408E-3
MEAN_MOTION_DDOT = 0

CCSDS_OMM_VERS = 2.0
CREATION_DATE  = 
ORIGINATOR     = 

OBJECT_NAME    = SZ-21 MODULE
OBJECT_ID      = 2025-246C
CENTER_NAME    = EARTH
REF_FRAME      = TEME
TIME_SYSTEM    = UTC
MEAN_ELEMENT_THEORY = SGP/SGP4

EPOCH          = 2026-02-15T04:52:02.803872
MEAN_MOTION    = 15.66814588
ECCENTRICITY   = .0002175
INCLINATION    = 41.4768
RA_OF_ASC_NODE = 341.5978
ARG_OF_PERICENTER = 296.5638
MEAN_ANOMALY   = 63.4980

EPHEMERIS_TYPE = 0
CLASSIFICATION_TYPE = U
NORAD_CAT_ID   = 66515
ELEMENT_SET_NO = 999
REV_AT_EPOCH   = 1454
BSTAR          = .37236199E-3
MEAN_MOTION_DOT = .4035E-3
MEAN_MOTION_DDOT = 0

CCSDS_OMM_VERS = 2.0
CREATION_DATE  = 
ORIGINATOR     = 

OBJECT_NAME    = SHENZHOU-22
OBJECT_ID      = 2025-272A
CENTER_NAME    = EARTH
REF_FRAME      = TEME
TIME_SYSTEM    = UTC
MEAN_ELEMENT_THEORY = SGP/SGP4

EPOCH          = 2026-02-15T05:55:50.092320
MEAN_MOTION    = 15.59657652
ECCENTRICITY   = .00040861
INCLINATION    = 41.4684
RA_OF_ASC_NODE = 344.6145
ARG_OF_PERICENTER = 100.8613
MEAN_ANOMALY   = 259.2686

EPHEMERIS_TYPE = 0
CLASSIFICATION_TYPE = U
NORAD_CAT_ID   = 66645
ELEMENT_SET_NO = 999
REV_AT_EPOCH   = 26764
BSTAR          = .39403586E-3
MEAN_MOTION_DOT = .32152E-3
MEAN_MOTION_DDOT = 0

CCSDS_OMM_VERS = 2.0
CREATION_DATE  = 
ORIGINATOR     = 

OBJECT_NAME    = SOYUZ-MS 28
OBJECT_ID      = 2025-275A
CENTER_NAME    = EARTH
REF_FRAME      = TEME
TIME_SYSTEM    = UTC
MEAN_ELEMENT_THEORY = SGP/SGP4

EPOCH          = 2026-02-15T04:22:41.614176
MEAN_MOTION    = 15.48615434
ECCENTRICITY   = .00110479
INCLINATION    = 51.6317
RA_OF_ASC_NODE = 183.6135
ARG_OF_PERICENTER = 100.3471
MEAN_ANOMALY   = 259.8763

EPHEMERIS_TYPE = 0
CLASSIFICATION_TYPE = U
NORAD_CAT_ID   = 66664
ELEMENT_SET_NO = 999
REV_AT_EPOCH   = 128
BSTAR          = .21745046E-3
MEAN_MOTION_DOT = .11408E-3
MEAN_MOTION_DDOT = 0

CCSDS_OMM_VERS = 2.0
CREATION_DATE  = 
ORIGINATOR     = 

OBJECT_NAME    = DUPLEX
OBJECT_ID      = 1998-067XS
CENTER_NAME    = EARTH
REF_FRAME      = TEME
TIME_SYSTEM    = UTC
MEAN_ELEMENT_THEORY = SGP/SGP4

EPOCH          = 2026-02-14T14:01:57.482976
MEAN_MOTION    = 15.54589478
ECCENTRICITY   = .00013577
INCLINATION    = 51.6286
RA_OF_ASC_NODE = 184.8744
ARG_OF_PERICENTER = 75.5760
MEAN_ANOMALY   = 284.5381

EPHEMERIS_TYPE = 0
CLASSIFICATION_TYPE = U
NORAD_CAT_ID   = 66906
ELEMENT_SET_NO = 999
REV_AT_EPOCH   = 1153
BSTAR          = .42811042E-3
MEAN_MOTION_DOT = .28442E-3
MEAN_MOTION_DDOT = 0

CCSDS_OMM_VERS = 2.0
CREATION_DATE  = 
ORIGINATOR     = 

OBJECT_NAME    = ISS OBJECT XT
OBJECT_ID      = 1998-067XT
CENTER_NAME    = EARTH
REF_FRAME      = TEME
TIME_SYSTEM    = UTC
MEAN_ELEMENT_THEORY = SGP/SGP4

EPOCH          = 2026-02-14T14:33:55.754784
MEAN_MOTION    = 15.62956456
ECCENTRICITY   = .00021757
INCLINATION    = 51.6270
RA_OF_ASC_NODE = 182.7704
ARG_OF_PERICENTER = 303.9865
MEAN_ANOMALY   = 56.0922

EPHEMERIS_TYPE = 0
CLASSIFICATION_TYPE = U
NORAD_CAT_ID   = 66907
ELEMENT_SET_NO = 999
REV_AT_EPOCH   = 1156
BSTAR          = .99972281E-3
MEAN_MOTION_DOT = .92923E-3
MEAN_MOTION_DDOT = 0

CCSDS_OMM_VERS = 2.0
CREATION_DATE  = 
ORIGINATOR     = 

OBJECT_NAME    = ISS OBJECT XU
OBJECT_ID      = 1998-067XU
CENTER_NAME    = EARTH
REF_FRAME      = TEME
TIME_SYSTEM    = UTC
MEAN_ELEMENT_THEORY = SGP/SGP4

EPOCH          = 2026-02-14T13:00:51.081696
MEAN_MOTION    = 15.62974029
ECCENTRICITY   = .00020426
INCLINATION    = 51.6259
RA_OF_ASC_NODE = 183.0859
ARG_OF_PERICENTER = 308.2832
MEAN_ANOMALY   = 51.7978

EPHEMERIS_TYPE = 0
CLASSIFICATION_TYPE = U
NORAD_CAT_ID   = 66908
ELEMENT_SET_NO = 999
REV_AT_EPOCH   = 1155
BSTAR          = .97715705E-3
MEAN_MOTION_DOT = .90853E-3
MEAN_MOTION_DDOT = 0

