RSP-03                  
1 65732U 98067XL  26046.29914915  .04025854  12023-4  13318-2 0  9999
2 65732  51.6093 160.1847 0009294 332.6615  27.3915 16.24990982 23390
YOTSUBA-KULOVER         
1 65941U 98067XN  26045.62611269  .00113932  00000+0  82769-3 0  9998
2 65941  51.6248 176.1336 0004475 301.6790  58.3771 15.72504057 19867
BOTAN                   
1 65942U 98067XP  26046.26297893  .00526538  11617-3  17519-2 0  9993
2 65942  51.6165 168.3215 0008928 328.9748  31.0729 15.89634661 20021
E-KAGAKU-1              
1 65943U 98067XQ  26045.56380018  .00110915  00000+0  81131-3 0  9998
2 65943  51.6271 176.4800 0004379 316.3340  43.7311 15.72355274 19853
HRC MONOBLOCK CAMERA    
1 66052U 98067XR  26045.58825787  .00041188  00000+0  50768-3 0  9996
2 66052  51.6272 181.8982 0001762   9.3579 350.7447 15.59775390 18785
HTV-X1                  
1 66174U 25241A   26046.18242609  .00011408  00000+0  21745-3 0  9993
2 66174  51.6317 183.6135 0011047 100.3471 259.8763 15.48615434   512
SZ-21 MODULE            
1 66515U 25246C   26046.20281023  .00040350  00000+0  37236-3 0  9993
2 66515  41.4768 341.5978 0002175 296.5638  63.4980 15.66814588 14542
SHENZHOU-22             
1 66645U 25272A   26046.24710755  .00032152  00000+0  39404-3 0  9999
2 66645  41.4684 344.6145 0004086 100.8613 259.2686 15.59657652267644
SOYUZ-MS 28             
1 66664U 25275A   26046.18242609  .00011408  00000+0  21745-3 0  9994
2 66664  51.6317 183.6135 0011047 100.3471 259.8763 15.48615434  1281
DUPLEX                  
1 66906U 98067XS  26045.58469309  .00028442  00000+0  42811-3 0  9996
2 66906  51.6286 184.8744 0001357  75.5760 284.5381 15.54589478 11536
ISS OBJECT XT           
1 66907U 98067XT  26045.60689531  .00092923  00000+0  99972-3 0  9996
2 66907  51.6270 182.7704 0002175 303.9865  56.0922 15.62956456 11565
ISS OBJECT XU           
1 66908U 98067XU  26045.54225789  .00090853  00000+0  97716-3 0  9995
2 66908  51.6259 183.0859 0002042 308.2832  51.7978 15.62974029 11551
